[{"OBJECT_NAME":"OBJECT H","OBJECT_ID":"2024-205H","EPOCH":"2026-03-09T23:10:36.271776","MEAN_MOTION":15.29110994,"ECCENTRICITY":0.00105089,"INCLINATION":97.4168,"RA_OF_ASC_NODE":147.1265,"ARG_OF_PERICENTER":38.7838,"MEAN_ANOMALY":321.4154,"EPHEMERIS_TYPE":0,"CLASSIFICATION_TYPE":"U","NORAD_CAT_ID":61901,"ELEMENT_SET_NO":999,"REV_AT_EPOCH":7354,"BSTAR":0.00059497566,"MEAN_MOTION_DOT":0.00016783,"MEAN_MOTION_DDOT":0},{"OBJECT_NAME":"STARLINK-35546","OBJECT_ID":"2025-245G","EPOCH":"2026-03-09T21:54:52.755840","MEAN_MOTION":15.30209336,"ECCENTRICITY":0.00010519,"INCLINATION":53.1595,"RA_OF_ASC_NODE":282.6512,"ARG_OF_PERICENTER":90.5564,"MEAN_ANOMALY":269.5557,"EPHEMERIS_TYPE":0,"CLASSIFICATION_TYPE":"U","NORAD_CAT_ID":66240,"ELEMENT_SET_NO":999,"REV_AT_EPOCH":2129,"BSTAR":0.00091944327,"MEAN_MOTION_DOT":0.00026979,"MEAN_MOTION_DDOT":0}]
